ONEWEB-0240             
1 48785U 21045U   23283.57529757  .00000000  00000+0 -32893-4 0  9998
2 48785  87.8936  94.4163 0001680  70.7618 289.3694 13.15552084115479
ONEWEB-0246             
1 48786U 21045V   23283.57107031 -.00000035  00000+0 -12661-3 0  9995
2 48786  87.8938  94.4185 0001980  77.1536 282.9816 13.15545926115347
ONEWEB-0210             
1 48787U 21045W   23283.54572369  .00000176  00000+0  43465-3 0  9993
2 48787  87.8936  94.4322 0002512  84.8070 275.3347 13.15546470115383
ONEWEB-0214             
1 48788U 21045X   23283.55628863  .00000168  00000+0  41172-3 0  9990
2 48788  87.8936  94.4190 0002479  87.7947 272.3467 13.15551375115351
ONEWEB-0221             
1 48789U 21045Y   23283.56261883  .00000035  00000+0  59253-4 0  9990
2 48789  87.8939  94.4288 0001765  79.1019 281.0310 13.15546862115444
ONEWEB-0213             
1 48790U 21045Z   23283.77813401  .00000249  00000+0  62661-3 0  9997
2 48790  87.8937  94.4032 0001925  76.4425 283.6919 13.15550334116667
ONEWEB-0212             
1 48791U 21045AA  23283.53092521  .00000127  00000+0  30269-3 0  9998
2 48791  87.8935  94.4333 0001538  94.0916 266.0390 13.15551736115496
ONEWEB-0227             
1 48792U 21045AB  23283.52459537  .00000079  00000+0  17462-3 0  9998
2 48792  87.8934  94.4491 0001614  82.9952 277.1362 13.15546653115441
